import {
  sunTexture,
  mercuryTexture,
  venusTexture,
  earthTexture,
  marsTexture,
  jupiterTexture,
  saturnTexture,
  uranusTexture,
  neptuneTexture,
  moonTexture,
} from '../images/textures'

export const SUN = {
  name: 'Sun',
  radius: 696340 / 174085,
  realRadius: 696340,
  texture: sunTexture,
  rotationSpeed: 360 / (25.4 * 86400),
  rotationAxis: [0, 1, 0],
}

export const PLANETS = [
  {
    name: 'Mercury',
    radius: 2440 / 20000,
    realRadius: 2440,
    texture: mercuryTexture,
    rotationSpeed: 360 / (58.6 * 86400),
    rotationAxis: [0, 0.999, 0.044],
    semiMajorAxis: 0.387098,
    eccentricity: 0.20563,
    inclination: 7.00487,
    longitudeOfAscendingNode: 48.33167,
    argumentOfPeriapsis: 29.12478,
    meanAnomalyAtEpoch: 174.79588,
    orbitalPeriod: 87.9691,
    orbitColor: 'gray',
  },
  {
    name: 'Venus',
    radius: 6052 / 20000,
    realRadius: 6052,
    texture: venusTexture,
    rotationSpeed: -(360 / (243 * 86400)),
    rotationAxis: [0, 0.999, 0.027],
    semiMajorAxis: 0.723332,
    eccentricity: 0.006772,
    inclination: 3.39471,
    longitudeOfAscendingNode: 76.68069,
    argumentOfPeriapsis: 54.85229,
    meanAnomalyAtEpoch: 50.115,
    orbitalPeriod: 224.701,
    orbitColor: 'yellow',
  },
  {
    name: 'Earth',
    radius: 6371 / 20000,
    realRadius: 6371,
    texture: earthTexture,
    rotationSpeed: 360 / 86400,
    rotationAxis: [0, 0.917, 0.398],
    semiMajorAxis: 1.00000011,
    eccentricity: 0.01671022,
    inclination: 0.00005,
    longitudeOfAscendingNode: -11.26064,
    argumentOfPeriapsis: 114.20783,
    meanAnomalyAtEpoch: 358.617,
    orbitalPeriod: 365.256,
    orbitColor: 'blue',
  },
  {
    name: 'Mars',
    radius: 3390 / 20000,
    realRadius: 3390,
    texture: marsTexture,
    rotationSpeed: 360 / (24.6 * 3600),
    rotationAxis: [0, 0.883, 0.469],
    semiMajorAxis: 1.523679,
    eccentricity: 0.0934,
    inclination: 1.85,
    longitudeOfAscendingNode: 49.558093,
    argumentOfPeriapsis: 286.537,
    meanAnomalyAtEpoch: 19.3564,
    orbitalPeriod: 686.98,
    orbitColor: 'red',
  },
  {
    name: 'Jupiter',
    radius: 69911 / 20000,
    realRadius: 69911,
    texture: jupiterTexture,
    rotationSpeed: 360 / (9.9 * 3600),
    rotationAxis: [0, 0.995, 0.105],
    semiMajorAxis: 5.2026,
    eccentricity: 0.048498,
    inclination: 1.303,
    longitudeOfAscendingNode: 100.46435,
    argumentOfPeriapsis: 273.867,
    meanAnomalyAtEpoch: 20.02,
    orbitalPeriod: 4332.589,
    orbitColor: 'orange',
  },
  {
    name: 'Saturn',
    radius: 58232 / 20000,
    realRadius: 58232,
    texture: saturnTexture,
    rotationSpeed: 360 / (10.7 * 3600),
    rotationAxis: [0, 0.868, 0.496],
    semiMajorAxis: 9.5549,
    eccentricity: 0.055508,
    inclination: 2.488,
    longitudeOfAscendingNode: 113.6655,
    argumentOfPeriapsis: 339.392,
    meanAnomalyAtEpoch: 317.02,
    orbitalPeriod: 10759.22,
    orbitColor: 'gold',
  },
  {
    name: 'Uranus',
    radius: 25362 / 20000,
    realRadius: 25362,
    texture: uranusTexture,
    rotationSpeed: -(360 / (17.2 * 3600)),
    rotationAxis: [0, 0.174, 0.985],
    semiMajorAxis: 19.21814,
    eccentricity: 0.046381,
    inclination: 0.773,
    longitudeOfAscendingNode: 74.00598,
    argumentOfPeriapsis: 96.998857,
    meanAnomalyAtEpoch: 142.2386,
    orbitalPeriod: 30685.4,
    orbitColor: 'lightblue',
  },
  {
    name: 'Neptune',
    radius: 24622 / 20000,
    realRadius: 24622,
    texture: neptuneTexture,
    rotationSpeed: 360 / (16.1 * 3600),
    rotationAxis: [0, 0.921, 0.389],
    semiMajorAxis: 30.11039,
    eccentricity: 0.009456,
    inclination: 1.769,
    longitudeOfAscendingNode: 131.784,
    argumentOfPeriapsis: 272.8461,
    meanAnomalyAtEpoch: 256.228,
    orbitalPeriod: 60189.0,
    orbitColor: 'blue',
  },
]
